NORAD_CAT_ID,OBJECT_NAME,OBJECT_TYPE,EPOCH,MEAN_MOTION,ECCENTRICITY,INCLINATION,RA_OF_ASC_NODE,ARG_OF_PERICENTER,MEAN_ANOMALY,BSTAR,MEAN_MOTION_DOT,MEAN_MOTION_DDOT,TLE_LINE0,TLE_LINE1,TLE_LINE2,SEMIMAJOR_AXIS,PERIOD,APOGEE,PERIGEE,DECAYED
56497.0,STARLINK-5527,PAYLOAD,2024-07-31 04:33:45,14.9832796,0.0002594,70.0009,143.1071,268.8675,91.2187,-1.514e-05,-2.74e-06,0.0,0 STARLINK-5527,1 56497U 23064BB  24213.19010774 -.00000274  00000-0 -15140-4 0  9997,2 56497  70.0009 143.1071 0002594 268.8675  91.2187 14.98327960 68740,6950.199,96.107,573.867,570.261,0.0
56497.0,STARLINK-5527,PAYLOAD,2024-07-31 12:34:26,14.98307915,0.000274,70.001,142.2654,290.864,69.2225,0.00022561,2.598e-05,0.0,0 STARLINK-5527,1 56497U 23064BB  24213.52391759  .00002598  00000-0  22561-3 0  9992,2 56497  70.0010 142.2654 0002740 290.8640  69.2225 14.98307915 68790,6950.261,96.108,574.031,570.222,0.0
56497.0,STARLINK-5527,PAYLOAD,2024-07-31 22:11:14,14.98325626,0.0002599,70.0013,141.2557,270.5098,89.5764,-0.00024784,-3.048e-05,0.0,0 STARLINK-5527,1 56497U 23064BB  24213.92447568 -.00003048  00000-0 -24784-3 0  9998,2 56497  70.0013 141.2557 0002599 270.5098  89.5764 14.98325626 68497,6950.206,96.107,573.878,570.265,0.0
56497.0,STARLINK-5527,PAYLOAD,2024-08-01 12:36:26,14.98332468,0.0003055,69.9997,139.7386,279.7645,80.3169,-5.8772e-05,-7.94e-06,0.0,0 STARLINK-5527,1 56497U 23064BB  24214.52530693 -.00000794  00000-0 -58772-4 0  9997,2 56497  69.9997 139.7386 0003055 279.7645  80.3169 14.98332468 68944,6950.185,96.107,574.174,569.927,0.0
56497.0,STARLINK-5527,PAYLOAD,2024-08-01 20:37:06,14.98326704,0.0003174,69.9996,138.8979,271.2274,88.8521,0.00019448,2.228e-05,0.0,0 STARLINK-5527,1 56497U 23064BB  24214.85910259  .00002228  00000-0  19448-3 0  9991,2 56497  69.9996 138.8979 0003174 271.2274  88.8521 14.98326704 68635,6950.203,96.107,574.274,569.862,0.0
56497.0,STARLINK-5527,PAYLOAD,2024-08-02 04:37:45,14.98341354,0.0003011,70.0,138.0571,272.0755,88.0059,0.00020994,2.414e-05,0.0,0 STARLINK-5527,1 56497U 23064BB  24215.19289309  .00002414  00000-0  20994-3 0  9999,2 56497  70.0000 138.0571 0003011 272.0755  88.0059 14.98341354 69049,6950.158,96.106,574.115,569.93,0.0
56497.0,STARLINK-5527,PAYLOAD,2024-08-02 12:38:27,14.98328246,0.0002121,70.0025,137.2151,281.5533,78.5388,0.00012208,1.364e-05,0.0,0 STARLINK-5527,1 56497U 23064BB  24215.52670621  .00001364  00000-0  12208-3 0  9999,2 56497  70.0025 137.2151 0002121 281.5533  78.5388 14.98328246 69090,6950.198,96.107,573.537,570.589,0.0
56497.0,STARLINK-5527,PAYLOAD,2024-08-02 22:15:16,14.9831848,0.0002644,69.9996,136.2053,273.3607,86.7249,0.00015809,1.793e-05,0.0,0 STARLINK-5527,1 56497U 23064BB  24215.92727170  .00001793  00000-0  15809-3 0  9991,2 56497  69.9996 136.2053 0002644 273.3607  86.7249 14.98318480 68797,6950.229,96.108,573.931,570.256,0.0
56497.0,STARLINK-5527,PAYLOAD,2024-08-03 04:39:48,14.98319851,0.000285,70.0004,135.5326,270.1347,89.9485,6.9502e-05,7.36e-06,0.0,0 STARLINK-5527,1 56497U 23064BB  24216.19431476  .00000736  00000-0  69502-4 0  9998,2 56497  70.0004 135.5326 0002850 270.1347  89.9485 14.98319851 69195,6950.224,96.108,574.07,570.108,0.0
56497.0,STARLINK-5527,PAYLOAD,2024-08-03 20:41:08,14.9833506,0.0002977,70.0001,133.8488,272.2989,87.7829,-1.4152e-05,-2.62e-06,0.0,0 STARLINK-5527,1 56497U 23064BB  24216.86190781 -.00000262  00000-0 -14152-4 0  9990,2 56497  70.0001 133.8488 0002977 272.2989  87.7829 14.98335060 69296,6950.177,96.107,574.111,569.973,0.0
56497.0,STARLINK-5527,PAYLOAD,2024-08-03 22:17:16,14.98335275,0.000297,70.0,133.6805,272.395,87.6869,-1.4051e-05,-2.61e-06,0.0,0 STARLINK-5527,1 56497U 23064BB  24216.92866759 -.00000261  00000-0 -14051-4 0  9999,2 56497  70.0000 133.6805 0002970 272.3950  87.6869 14.98335275 68940,6950.177,96.107,574.106,569.977,0.0
56497.0,STARLINK-5527,PAYLOAD,2024-08-04 04:41:48,14.9834238,0.0002856,70.0002,133.0078,270.7736,89.3096,0.00014777,1.671e-05,0.0,0 STARLINK-5527,1 56497U 23064BB  24217.19569830  .00001671  00000-0  14777-3 0  9997,2 56497  70.0002 133.0078 0002856 270.7736  89.3096 14.98342380 69346,6950.155,96.106,574.005,570.035,0.0
56497.0,STARLINK-5527,PAYLOAD,2024-08-04 20:43:09,14.98328031,0.0002699,70.0013,131.3242,266.1803,93.9048,0.00016614,1.89e-05,0.0,0 STARLINK-5527,1 56497U 23064BB  24217.86330514  .00001890  00000-0  16614-3 0  9991,2 56497  70.0013 131.3242 0002699 266.1803  93.9048 14.98328031 69447,6950.199,96.107,573.94,570.188,0.0
56497.0,STARLINK-5527,PAYLOAD,2024-08-04 22:19:17,14.98329063,0.0002736,70.0004,131.1559,269.5426,90.5419,0.00016791,1.911e-05,0.0,0 STARLINK-5527,1 56497U 23064BB  24217.93006495  .00001911  00000-0  16791-3 0  9997,2 56497  70.0004 131.1559 0002736 269.5426  90.5419 14.98329063 69098,6950.196,96.107,573.962,570.159,0.0
56497.0,STARLINK-5527,PAYLOAD,2024-08-05 04:43:49,14.98339918,0.000268,70.0005,130.4839,264.4452,95.6402,0.00023611,2.726e-05,0.0,0 STARLINK-5527,1 56497U 23064BB  24218.19709661  .00002726  00000-0  23611-3 0  9995,2 56497  70.0005 130.4839 0002680 264.4452  95.6402 14.98339918 69495,6950.162,96.106,573.89,570.165,0.0
56497.0,STARLINK-5527,PAYLOAD,2024-08-05 11:08:22,14.9832505,0.00028,70.0001,129.8099,272.2181,87.8658,3.7472e-05,3.54e-06,0.0,0 STARLINK-5527,1 56497U 23064BB  24218.46415049  .00000354  00000-0  37472-4 0  9995,2 56497  70.0001 129.8099 0002800 272.2181  87.8658 14.98325050 69534,6950.208,96.107,574.019,570.127,0.0
56497.0,STARLINK-5527,PAYLOAD,2024-08-05 22:21:19,14.9831945,0.0002463,70.0009,128.6348,252.278,107.8111,-0.00015673,-1.962e-05,0.0,0 STARLINK-5527,1 56497U 23064BB  24218.93148009 -.00001962  00000-0 -15673-3 0  9992,2 56497  70.0009 128.6348 0002463 252.2780 107.8111 14.98319450 69246,6950.226,96.108,573.802,570.379,0.0
56497.0,STARLINK-5527,PAYLOAD,2024-08-06 04:45:52,14.98319308,0.0002401,70.0009,127.9596,260.4282,99.6606,-0.00014577,-1.831e-05,0.0,0 STARLINK-5527,1 56497U 23064BB  24219.19852192 -.00001831  00000-0 -14577-3 0  9993,2 56497  70.0009 127.9596 0002401 260.4282  99.6606 14.98319308 69646,6950.226,96.108,573.76,570.422,0.0
56497.0,STARLINK-5527,PAYLOAD,2024-08-06 19:11:03,14.98329647,0.0002978,69.9996,126.4424,269.5533,90.5285,8.73e-05,9.49e-06,0.0,0 STARLINK-5527,1 56497U 23064BB  24219.79935020  .00000949  00000-0  87300-4 0  9993,2 56497  69.9996 126.4424 0002978 269.5533  90.5285 14.98329647 69730,6950.194,96.107,574.129,569.989,0.0
56497.0,STARLINK-5527,PAYLOAD,2024-08-06 22:23:19,14.98335054,0.0002753,70.0001,126.1068,267.7193,92.365,0.00010494,1.16e-05,0.0,0 STARLINK-5527,1 56497U 23064BB  24219.93286666  .00001160  00000-0  10494-3 0  9999,2 56497  70.0001 126.1068 0002753 267.7193  92.3650 14.98335054 69391,6950.177,96.107,573.956,570.129,0.0
56497.0,STARLINK-5527,PAYLOAD,2024-08-07 03:11:43,14.9834089,0.0002603,70.0006,125.6031,259.7001,100.3865,0.00013552,1.525e-05,0.0,0 STARLINK-5527,1 56497U 23064BB  24220.13314253  .00001525  00000-0  13552-3 0  9990,2 56497  70.0006 125.6031 0002603 259.7001 100.3865 14.98340890 69788,6950.159,96.106,573.833,570.215,0.0
56497.0,STARLINK-5527,PAYLOAD,2024-08-07 20:49:12,14.98326311,0.0002597,70.0008,123.7512,261.8485,98.238,0.00027147,3.147e-05,0.0,0 STARLINK-5527,1 56497U 23064BB  24220.86750849  .00003147  00000-0  27147-3 0  9992,2 56497  70.0008 123.7512 0002597 261.8485  98.2380 14.98326311 69896,6950.204,96.107,573.874,570.264,0.0
56497.0,STARLINK-5527,PAYLOAD,2024-08-08 03:13:44,14.98331424,0.0002395,70.0016,123.0788,253.9849,106.1046,0.00034086,3.977e-05,0.0,0 STARLINK-5527,1 56497U 23064BB  24221.13454601  .00003977  00000-0  34086-3 0  9991,2 56497  70.0016 123.0788 0002395 253.9849 106.1046 14.98331424 69579,6950.188,96.107,573.718,570.389,0.0
56497.0,STARLINK-5527,PAYLOAD,2024-08-08 20:51:13,14.98339857,0.0002392,70.0022,121.2289,249.3853,110.7049,5.0347e-05,5.08e-06,0.0,0 STARLINK-5527,1 56497U 23064BB  24221.86890364  .00000508  00000-0  50347-4 0  9997,2 56497  70.0022 121.2289 0002392 249.3853 110.7049 14.98339857 70049,6950.162,96.106,573.69,570.365,0.0
56497.0,STARLINK-5527,PAYLOAD,2024-08-08 22:27:21,14.98344556,0.0002273,70.0024,121.0605,249.6288,110.4627,-4.7822e-05,-6.64e-06,0.0,0 STARLINK-5527,1 56497U 23064BB  24221.93566170 -.00000664  00000-0 -47822-4 0  9999,2 56497  70.0024 121.0605 0002273 249.6288 110.4627 14.98344556 69694,6950.148,96.106,573.593,570.433,0.0
56497.0,STARLINK-5527,PAYLOAD,2024-08-09 03:15:44,14.98356296,0.000225,70.0023,120.5556,242.8661,117.2268,-0.00032652,-3.989e-05,0.0,0 STARLINK-5527,1 56497U 23064BB  24222.13593737 -.00003989  00000-0 -32652-3 0  9998,2 56497  70.0023 120.5556 0002250 242.8661 117.2268 14.98356296 70082,6950.112,96.105,573.54,570.413,0.0
56497.0,STARLINK-5527,PAYLOAD,2024-08-09 20:53:14,14.98333159,0.0002527,70.0008,118.7001,268.3241,91.7628,-2.8226e-05,-4.3e-06,0.0,0 STARLINK-5527,1 56497U 23064BB  24222.87030677 -.00000430  00000-0 -28226-4 0  9999,2 56497  70.0008 118.7001 0002527 268.3241  91.7628 14.98333159 70194,6950.183,96.107,573.804,570.292,0.0
56497.0,STARLINK-5527,PAYLOAD,2024-08-10 01:41:38,14.98334536,0.000253,70.001,118.1951,271.0911,88.9959,2.2689e-05,1.78e-06,0.0,0 STARLINK-5527,1 56497U 23064BB  24223.07058442  .00000178  00000-0  22689-4 0  9996,2 56497  70.0010 118.1951 0002530 271.0911  88.9959 14.98334536 69861,6950.179,96.107,573.802,570.285,0.0
56497.0,STARLINK-5527,PAYLOAD,2024-08-10 20:55:15,14.98335942,0.0002388,70.0015,116.1765,258.0328,102.0564,1.969e-05,1.42e-06,0.0,0 STARLINK-5527,1 56497U 23064BB  24223.87170160  .00000142  00000-0  19690-4 0  9995,2 56497  70.0015 116.1765 0002388 258.0328 102.0564 14.98335942 70342,6950.175,96.107,573.699,570.38,0.0
56497.0,STARLINK-5527,PAYLOAD,2024-08-10 22:31:22,14.98341997,0.0002433,70.0016,116.0084,249.5546,110.5352,-8.7177e-05,-1.133e-05,0.0,0 STARLINK-5527,1 56497U 23064BB  24223.93845992 -.00001133  00000-0 -87177-4 0  9992,2 56497  70.0016 116.0084 0002433 249.5546 110.5352 14.98341997 69999,6950.156,96.106,573.712,570.33,0.0
